{
  "type": "FeatureCollection",
  "features": [
    {
      "type": "Feature",
      "properties": {
        "norad_id": 34141,
        "name": "COSMOS 2251 DEB",
        "group": "cosmos-2251-debris",
        "lat": -52.676516819389256,
        "lon": -122.40354697003161,
        "alt_km": 747.9127184026565,
        "timestamp": "2025-12-09T04:51:47.885283+00:00",
        "meta_object_name": "COSMOS 2251 DEB",
        "meta_object_id": "1993-036LN",
        "meta_epoch": "2025-12-08T13:27:44.555040",
        "meta_mean_motion": 14.49169301,
        "meta_eccentricity": 0.0047707,
        "meta_inclination": 74.0111,
        "meta_ra_of_asc_node": 36.7115,
        "meta_arg_of_pericenter": 124.3798,
        "meta_mean_anomaly": 4.4304,
        "meta_ephemeris_type": 0,
        "meta_classification_type": "U",
        "meta_norad_cat_id": 34141,
        "meta_element_set_no": 999,
        "meta_rev_at_epoch": 87633,
        "meta_bstar": 0.0020402,
        "meta_mean_motion_dot": 7.859e-05,
        "meta_mean_motion_ddot": 0,
        "tle_line1": "1 34141U 93036LN  25342.56093235  .00007859  00000+0  20402-2 0  9991",
        "tle_line2": "2 34141  74.0111  36.7115 0047707 124.3798   4.4304 14.49169301876331"
      },
      "geometry": {
        "type": "Point",
        "coordinates": [
          -122.40354697003161,
          -52.676516819389256
        ]
      }
    },
    {
      "type": "Feature",
      "properties": {
        "norad_id": 34270,
        "name": "COSMOS 2251 DEB",
        "group": "cosmos-2251-debris",
        "lat": -11.15314427219564,
        "lon": -49.79748129903584,
        "alt_km": 696.7880546327742,
        "timestamp": "2025-12-09T04:51:47.885293+00:00",
        "meta_object_name": "COSMOS 2251 DEB",
        "meta_object_id": "1993-036LQ",
        "meta_epoch": "2025-12-08T20:43:21.006048",
        "meta_mean_motion": 14.65118989,
        "meta_eccentricity": 0.0047776,
        "meta_inclination": 74.0117,
        "meta_ra_of_asc_node": 314.0963,
        "meta_arg_of_pericenter": 108.0707,
        "meta_mean_anomaly": 252.5675,
        "meta_ephemeris_type": 0,
        "meta_classification_type": "U",
        "meta_norad_cat_id": 34270,
        "meta_element_set_no": 999,
        "meta_rev_at_epoch": 89039,
        "meta_bstar": 0.00085383,
        "meta_mean_motion_dot": 4.637e-05,
        "meta_mean_motion_ddot": 0,
        "tle_line1": "1 34270U 93036LQ  25342.86343757  .00004637  00000+0  85383-3 0  9995",
        "tle_line2": "2 34270  74.0117 314.0963 0047776 108.0707 252.5675 14.65118989890391"
      },
      "geometry": {
        "type": "Point",
        "coordinates": [
          -49.79748129903584,
          -11.15314427219564
        ]
      }
    },
    {
      "type": "Feature",
      "properties": {
        "norad_id": 34271,
        "name": "COSMOS 2251 DEB",
        "group": "cosmos-2251-debris",
        "lat": -42.16032835757223,
        "lon": 41.23930110151631,
        "alt_km": 654.3678480127619,
        "timestamp": "2025-12-09T04:51:47.885303+00:00",
        "meta_object_name": "COSMOS 2251 DEB",
        "meta_object_id": "1993-036LR",
        "meta_epoch": "2025-12-08T16:40:42.511008",
        "meta_mean_motion": 14.70621487,
        "meta_eccentricity": 0.001933,
        "meta_inclination": 74.0195,
        "meta_ra_of_asc_node": 207.1858,
        "meta_arg_of_pericenter": 261.8667,
        "meta_mean_anomaly": 155.6707,
        "meta_ephemeris_type": 0,
        "meta_classification_type": "U",
        "meta_norad_cat_id": 34271,
        "meta_element_set_no": 999,
        "meta_rev_at_epoch": 88175,
        "meta_bstar": 0.0024145,
        "meta_mean_motion_dot": 0.0001473,
        "meta_mean_motion_ddot": 0,
        "tle_line1": "1 34271U 93036LR  25342.69493647  .00014730  00000+0  24145-2 0  9994",
        "tle_line2": "2 34271  74.0195 207.1858 0019330 261.8667 155.6707 14.70621487881758"
      },
      "geometry": {
        "type": "Point",
        "coordinates": [
          41.23930110151631,
          -42.16032835757223
        ]
      }
    },
    {
      "type": "Feature",
      "properties": {
        "norad_id": 34273,
        "name": "COSMOS 2251 DEB",
        "group": "cosmos-2251-debris",
        "lat": 4.493782460239159,
        "lon": 95.48004528890284,
        "alt_km": 699.7317312144023,
        "timestamp": "2025-12-09T04:51:47.885313+00:00",
        "meta_object_name": "COSMOS 2251 DEB",
        "meta_object_id": "1993-036LT",
        "meta_epoch": "2025-12-08T07:37:17.945184",
        "meta_mean_motion": 14.61157156,
        "meta_eccentricity": 0.00142963,
        "meta_inclination": 74.0362,
        "meta_ra_of_asc_node": 95.8822,
        "meta_arg_of_pericenter": 221.4582,
        "meta_mean_anomaly": 169.5254,
        "meta_ephemeris_type": 0,
        "meta_classification_type": "U",
        "meta_norad_cat_id": 34273,
        "meta_element_set_no": 999,
        "meta_rev_at_epoch": 88557,
        "meta_bstar": 0.0014863226,
        "meta_mean_motion_dot": 7.304e-05,
        "meta_mean_motion_ddot": 0,
        "tle_line1": "1 34273U 93036LT  25342.31756881  .00007304  00000+0  14863-2 0  9992",
        "tle_line2": "2 34273  74.0362  95.8822 0014296 221.4582 169.5254 14.61157156885575"
      },
      "geometry": {
        "type": "Point",
        "coordinates": [
          95.48004528890284,
          4.493782460239159
        ]
      }
    },
    {
      "type": "Feature",
      "properties": {
        "norad_id": 34274,
        "name": "COSMOS 2251 DEB",
        "group": "cosmos-2251-debris",
        "lat": 39.69099788902398,
        "lon": 89.15527225253794,
        "alt_km": 690.270897336487,
        "timestamp": "2025-12-09T04:51:47.885323+00:00",
        "meta_object_name": "COSMOS 2251 DEB",
        "meta_object_id": "1993-036LU",
        "meta_epoch": "2025-12-08T17:46:00.338016",
        "meta_mean_motion": 14.64704311,
        "meta_eccentricity": 0.0022269,
        "meta_inclination": 74.0048,
        "meta_ra_of_asc_node": 76.273,
        "meta_arg_of_pericenter": 226.5258,
        "meta_mean_anomaly": 258.1991,
        "meta_ephemeris_type": 0,
        "meta_classification_type": "U",
        "meta_norad_cat_id": 34274,
        "meta_element_set_no": 999,
        "meta_rev_at_epoch": 88617,
        "meta_bstar": 0.0018467,
        "meta_mean_motion_dot": 9.85e-05,
        "meta_mean_motion_ddot": 0,
        "tle_line1": "1 34274U 93036LU  25342.74028169  .00009850  00000+0  18467-2 0  9993",
        "tle_line2": "2 34274  74.0048  76.2730 0022269 226.5258 258.1991 14.64704311886177"
      },
      "geometry": {
        "type": "Point",
        "coordinates": [
          89.15527225253794,
          39.69099788902398
        ]
      }
    },
    {
      "type": "Feature",
      "properties": {
        "norad_id": 34276,
        "name": "COSMOS 2251 DEB",
        "group": "cosmos-2251-debris",
        "lat": 68.31187933364421,
        "lon": 138.1281845568999,
        "alt_km": 710.6649338410107,
        "timestamp": "2025-12-09T04:51:47.885333+00:00",
        "meta_object_name": "COSMOS 2251 DEB",
        "meta_object_id": "1993-036LW",
        "meta_epoch": "2025-12-08T13:45:23.227200",
        "meta_mean_motion": 14.57181412,
        "meta_eccentricity": 0.0022666,
        "meta_inclination": 74.0239,
        "meta_ra_of_asc_node": 93.2422,
        "meta_arg_of_pericenter": 240.1519,
        "meta_mean_anomaly": 134.4269,
        "meta_ephemeris_type": 0,
        "meta_classification_type": "U",
        "meta_norad_cat_id": 34276,
        "meta_element_set_no": 999,
        "meta_rev_at_epoch": 88532,
        "meta_bstar": 0.0013561,
        "meta_mean_motion_dot": 6.118e-05,
        "meta_mean_motion_ddot": 0,
        "tle_line1": "1 34276U 93036LW  25342.57318550  .00006118  00000+0  13561-2 0  9996",
        "tle_line2": "2 34276  74.0239  93.2422 0022666 240.1519 134.4269 14.57181412885324"
      },
      "geometry": {
        "type": "Point",
        "coordinates": [
          138.1281845568999,
          68.31187933364421
        ]
      }
    },
    {
      "type": "Feature",
      "properties": {
        "norad_id": 34297,
        "name": "COSMOS 2251 DEB",
        "group": "cosmos-2251-debris",
        "lat": -10.446403592843987,
        "lon": -72.2952869449955,
        "alt_km": 761.5213166414796,
        "timestamp": "2025-12-09T04:51:47.885343+00:00",
        "meta_object_name": "COSMOS 2251 DEB",
        "meta_object_id": "1993-036MT",
        "meta_epoch": "2025-12-08T20:42:34.839072",
        "meta_mean_motion": 14.36624354,
        "meta_eccentricity": 0.0017117,
        "meta_inclination": 74.0484,
        "meta_ra_of_asc_node": 291.3511,
        "meta_arg_of_pericenter": 0.8234,
        "meta_mean_anomaly": 32.1118,
        "meta_ephemeris_type": 0,
        "meta_classification_type": "U",
        "meta_norad_cat_id": 34297,
        "meta_element_set_no": 999,
        "meta_rev_at_epoch": 88009,
        "meta_bstar": 0.00029831,
        "meta_mean_motion_dot": 8.53e-06,
        "meta_mean_motion_ddot": 0,
        "tle_line1": "1 34297U 93036MT  25342.86290323  .00000853  00000+0  29831-3 0  9996",
        "tle_line2": "2 34297  74.0484 291.3511 0017117   0.8234  32.1118 14.36624354880099"
      },
      "geometry": {
        "type": "Point",
        "coordinates": [
          -72.2952869449955,
          -10.446403592843987
        ]
      }
    }
  ]
}